STARLINK-34401          
1 64757U 25147C   25196.54429742 -.00506124  00000+0 -20130-2 0  9995
2 64757  53.1566 272.1449 0001105  52.8765 307.2361 15.87109659  2269
STARLINK-34593          
1 64758U 25147D   25196.60693399 -.00543196  00000+0 -21868-2 0  9993
2 64758  53.1566 271.8238 0001621  30.5651 329.5469 15.86946612  2344
STARLINK-34598          
1 64759U 25147E   25196.60659287 -.00545701  00000+0 -21918-2 0  9992
2 64759  53.1566 271.8216 0001513  43.7605 316.3540 15.87000031  2291
STARLINK-34235          
1 64760U 25147F   25196.60621464 -.00547851  00000+0 -21954-2 0  9998
2 64760  53.1566 271.8193 0001529  39.2193 320.8943 15.87051146  2386
STARLINK-34635          
1 64761U 25147G   25196.54291848 -.00511133  00000+0 -20118-2 0  9996
2 64761  53.1563 272.1351 0001115  54.8613 305.2516 15.87331887  2336
STARLINK-34638          
1 64762U 25147H   25196.60552472 -.00556557  00000+0 -22209-2 0  9999
2 64762  53.1567 271.8141 0001584  32.9302 327.1822 15.87155925  2347
STARLINK-34534          
1 64763U 25147J   25196.60519215 -.00560038  00000+0 -22291-2 0  9998
2 64763  53.1562 271.8122 0001231  42.0792 318.0328 15.87217801  2348
STARLINK-34261          
1 64764U 25147K   25196.60484284 -.00566102  00000+0 -22496-2 0  9991
2 64764  53.1563 271.8093 0001326  41.6820 318.4306 15.87263634  2388
STARLINK-34566          
1 64765U 25147L   25196.60448137 -.00554157  00000+0 -21918-2 0  9994
2 64765  53.1568 271.8075 0001071  28.0212 332.0871 15.87332739  2343
STARLINK-34645          
1 64766U 25147M   25196.60416419 -.00552388  00000+0 -21797-2 0  9992
2 64766  53.1563 271.8046 0001171  45.1850 314.9271 15.87375127  2347
STARLINK-34639          
1 64767U 25147N   25196.60379219 -.00545063  00000+0 -21426-2 0  9990
2 64767  53.1562 271.8020 0001146  47.1957 312.9165 15.87435365  2296
STARLINK-34609          
1 64768U 25147P   25196.60344867 -.00586749  00000+0 -23139-2 0  9991
2 64768  53.1565 271.7996 0001554  43.6499 316.4649 15.87463017  2343
STARLINK-34246          
1 64769U 25147Q   25196.60305431 -.00583182  00000+0 -22922-2 0  9993
2 64769  53.1564 271.7968 0001558  37.9229 322.1906 15.87521691  2346
STARLINK-34618          
1 64770U 25147R   25196.60273954 -.00587366  00000+0 -23039-2 0  9997
2 64770  53.1565 271.7944 0001413  43.3862 316.7274 15.87573630  2276
STARLINK-34541          
1 64771U 25147S   25196.60238627 -.00602293  00000+0 -23612-2 0  9990
2 64771  53.1563 271.7918 0001266  48.8915 311.2220 15.87619268  2270
STARLINK-34652          
1 64772U 25147T   25196.60206081 -.00612495  00000+0 -23979-2 0  9991
2 64772  53.1564 271.7896 0001393  43.1556 316.9578 15.87669114  2348
STARLINK-34612          
1 64773U 25147U   25196.60168423 -.00628552  00000+0 -24590-2 0  9990
2 64773  53.1563 271.7873 0000713  43.5213 316.5869 15.87724651  2349
STARLINK-34621          
1 64774U 25147V   25196.53836609 -.00582516  00000+0 -22339-2 0  9999
2 64774  53.1562 272.1030 0001346  46.6212 313.4925 15.88015176  2261
STARLINK-34657          
1 64775U 25147W   25196.53798998 -.00590993  00000+0 -22634-2 0  9994
2 64775  53.1565 272.1008 0001017  38.8110 321.2988 15.88063142  2335
STARLINK-34637          
1 64776U 25147X   25196.53767731 -.00755694  00000+0 -29535-2 0  9994
2 64776  53.1562 272.0986 0000624  52.9243 307.1839 15.88033682  2260
STARLINK-34547          
1 64777U 25147Y   25196.53734052 -.00628487  00000+0 -24068-2 0  9990
2 64777  53.1562 272.0956 0001094  66.9903 293.1238 15.88148996  2282
STARLINK-34537          
1 64778U 25147Z   25196.59553263 -.00418315  68313-4 -10695-2 0  9994
2 64778  53.1566 271.7457 0002196  31.6366 328.4794 15.94497564  2380
STARLINK-34585          
1 64779U 25147AA  25196.53661999 -.00659320  00000+0 -25217-2 0  9998
2 64779  53.1560 272.0908 0001272  69.3632 290.7530 15.88242317  2283
STARLINK-34491          
1 64780U 25147AB  25196.58334491 -.01654626  00000+0 -69289-2 0  9991
2 64780  53.1562 271.8518 0000749  81.3624 188.1661 15.87691886  2355
STARLINK-34582          
1 64781U 25147AC  25196.58334491 -.01669864  00000+0 -69864-2 0  9991
2 64781  53.1565 271.8471 0000811  79.2372 192.4533 15.87736664  2241
STARLINK-34482          
1 64782U 25147AD  25196.53548095 -.00853606  00000+0 -33294-2 0  9990
2 64782  53.1563 272.0837 0000704  47.6798 312.4287 15.88296256  2374
CZ-4C DEB               
1 64783U 25145C   25196.52199801  .00097738  00000+0  41312-1 0  9998
2 64783  10.9784   1.2525 0039230 313.3955  46.3011 14.23336959   943
DROR 1                  
1 64784U 25148A   25195.43699454 -.00001738  18742-5  00000+0 0  9991
2 64784  24.2039 199.1450 8243965 180.6290 160.6230  1.19829330    30
TIANZHOU-9              
1 64786U 25149A   25196.51568360  .00010990  00000+0  15340-3 0  9993
2 64786  41.4639 208.8266 0008532 283.9015  76.0873 15.56749765240572
CZ-7 DEB                
1 64787U 25149B   25196.81076389  .00627638  74541-5  54379-3 0  9997
2 64787  41.4685 206.6948 0102796 178.8315 172.7290 16.01777332   145
CZ-7 DEB                
1 64788U 25149C   25196.44873699  .04168835  68337-5  47874-2 0  9996
2 64788  41.6339 209.1382 0231080 184.6096 177.5184 15.72954611    75
CZ-7 DEB                
1 64789U 25149D   25196.44848674  .04301437  69676-5  53333-2 0  9993
2 64789  41.8022 209.0932 0227243 178.8352 181.3013 15.72844333    87
